STARLINK-31753          
1 59484U 24071A   26068.15951413 -.00001523  00000+0 -45806-4 0  9994
2 59484  43.0044 342.8115 0002222 258.3159 101.7443 15.27589882108129
FLOCK 4G-23             
1 62647U 25009AQ  26068.71663397  .00012440  00000+0  46816-3 0  9993
2 62647  97.3979 150.9478 0000905   7.2707 352.8545 15.27262579 63728
